API VERSION: 1.2
API SOURCE: NASA/JPL Horizons API



*******************************************************************************
Ephemeris / API_USER Tue Dec 31 02:05:22 2024 Pasadena, USA      / Horizons
*******************************************************************************
Target body name: Earth (399)                     {source: DE441}
Center body name: Solar System Barycenter (0)     {source: DE441}
Center-site name: BODY CENTER
*******************************************************************************
Start time      : A.D. 2031-Jun-15 00:00:00.0000 TDB
Stop  time      : A.D. 2031-Jul-31 00:00:00.0000 TDB
Step-size       : 1440 minutes
*******************************************************************************
Center geodetic : 0.0, 0.0, 0.0                   {E-lon(deg),Lat(deg),Alt(km)}
Center cylindric: 0.0, 0.0, 0.0                   {E-lon(deg),Dxy(km),Dz(km)}
Center radii    : (undefined)
Output units    : KM-S
Calendar mode   : Mixed Julian/Gregorian
Output type     : GEOMETRIC cartesian states
Output format   : 2 (position and velocity)
Reference frame : Ecliptic of J2000.0
*******************************************************************************
            JDTDB,            Calendar Date (TDB),                      X,                      Y,                      Z,                     VX,                     VY,                     VZ,
**************************************************************************************************************************************************************************************************
$$SOE
2463075.500000000, A.D. 2031-Jul-28 00:00:00.0000,  8.536822868690786E+07, -1.252573550749769E+08,  2.114958374475688E+04,  2.409759941325713E+01,  1.669314602580761E+01, -2.225647362671168E-03,
2463076.500000000, A.D. 2031-Jul-29 00:00:00.0000,  8.743796833781016E+07, -1.237975039451448E+08,  2.095425179129094E+04,  2.381197594743500E+01,  1.709883976996813E+01, -2.285381544916198E-03,
2463077.500000000, A.D. 2031-Jul-30 00:00:00.0000,  8.948275751950084E+07, -1.223028250769060E+08,  2.075658368157595E+04,  2.352008086905077E+01,  1.749934399319168E+01, -2.278795360125763E-03,
2463078.500000000, A.D. 2031-Jul-31 00:00:00.0000,  9.150206409541412E+07, -1.207737659057757E+08,  2.056248417560756E+04,  2.322213532503361E+01,  1.789469038497582E+01, -2.202678660992774E-03,
